{"type":"FeatureCollection","license":"ODbL-1.0","attribution":"\u00a9 OpenStreetMap contributors","features":[{"type":"Feature","properties":{"osmId":"node/4304426158","name":"Rajalakshmi Nagar","place":"neighbourhood"},"geometry":{"type":"Point","coordinates":[80.2187428,12.9852883]}},{"type":"Feature","properties":{"osmId":"node/8616601057","addr:city":"Chennai","addr:housenumber":"391","addr:postcode":"600042","addr:street":"Velachery Main Road","air_conditioning":"yes","brand":"Reliance Digital","brand:wikidata":"Q7311012","check_date":"2026-03-11","level":"0","name":"Reliance Digital","opening_hours":"Mo-Su 10:00-22:00","payment:cash":"yes","payment:credit_cards":"yes","payment:debit_cards":"yes","phone":"+91 44 2243 2174","shop":"electronics"},"geometry":{"type":"Point","coordinates":[80.2195973,12.9716089]}},{"type":"Feature","properties":{"osmId":"node/8697656183","addr:city":"Chennai","addr:postcode":"600042","air_conditioning":"yes","check_date":"2026-03-11","name":"Chennai Silks","payment:cash":"yes","payment:credit_cards":"yes","payment:debit_cards":"yes","shop":"clothes"},"geometry":{"type":"Point","coordinates":[80.219036,12.9699385]}},{"type":"Feature","properties":{"osmId":"node/9920341495","bench":"no","bin":"no","bus":"yes","highway":"bus_stop","lit":"no","name":"Guindy Railway Station","public_transport":"platform","shelter":"no"},"geometry":{"type":"Point","coordinates":[80.2131366,13.0080474]}},{"type":"Feature","properties":{"osmId":"node/13638977920","brand":"Bata","brand:wikidata":"Q688082","check_date":"2026-03-11","name":"Bata","shop":"shoes"},"geometry":{"type":"Point","coordinates":[80.2206389,12.9744602]}},{"type":"Feature","properties":{"osmId":"way/929083568","addr:city":"Chennai","addr:postcode":"600042","building":"yes","name":"Poorvika","shop":"mobile_phone"},"geometry":{"type":"Point","coordinates":[80.2191648,12.9720985]}},{"type":"Feature","properties":{"osmId":"relation/15321422","addr:city":"Chennai","addr:postcode":"6000042","addr:street":"Velachery Main Road","building":"yes","building:levels":"4","name":"Phoenix Marketcity Chennai","phone":"04461343008","shop":"mall","type":"multipolygon","website":"https://www.phoenixmarketcity.com/chennai"},"geometry":{"type":"Point","coordinates":[80.2166832,12.9915311]}}]}