{"type":"FeatureCollection","metadata":{"source":"OpenStreetMap contributors","license":"ODbL-1.0","licenseUrl":"https://opendatacommons.org/licenses/odbl/1-0/","attributionUrl":"https://www.openstreetmap.org/copyright","exportTimestamp":"2026-05-06T03:25:00Z","origin":{"lat":12.99,"lon":80.2195},"bounds":[80.2038,12.9676,80.225,13.014],"interiorBoundary":[[80.2183244,12.987429],[80.2184169,12.9879978],[80.2184679,12.9883119],[80.2185317,12.9885832],[80.2186829,12.989059],[80.2188598,12.989549],[80.2190505,12.9900535],[80.2192192,12.9905678],[80.2194831,12.9913387],[80.2195754,12.9914347],[80.2196439,12.9913628],[80.219817,12.9911401],[80.2199522,12.9909826],[80.2199724,12.990958],[80.2200604,12.9908509],[80.2201775,12.99071],[80.2203598,12.9904916],[80.2206506,12.9901551],[80.2207226,12.9901027],[80.2208438,12.98994],[80.2209708,12.989835],[80.2213262,12.9895414],[80.2214745,12.9894189],[80.2216446,12.9892802],[80.2220104,12.9889818],[80.2221549,12.9888707],[80.2221745,12.9888541],[80.222389,12.9886732],[80.2223986,12.9886651],[80.2227406,12.9882717],[80.2229244,12.9880352],[80.2230558,12.9878444],[80.223065,12.9878213],[80.2230746,12.9877973],[80.2230826,12.9877398],[80.2230974,12.9876327],[80.2230821,12.9873016],[80.2230567,12.9870692],[80.2229705,12.9864666],[80.2229732,12.9861768],[80.2229796,12.9859715],[80.2230311,12.9857206],[80.2233142,12.9854614],[80.2233058,12.985361],[80.2232618,12.9851127],[80.2232491,12.9850804],[80.2231255,12.9847671],[80.2228777,12.9843858],[80.2226639,12.9840511],[80.2226277,12.9839929],[80.2225223,12.9838238],[80.2225076,12.9838003],[80.2221099,12.9831615],[80.2219894,12.9829338],[80.2218989,12.9827629],[80.2218538,12.9825674],[80.2217186,12.9822402],[80.2215039,12.9818333],[80.221117,12.9813206],[80.2210859,12.981247],[80.2210148,12.9810784],[80.2210445,12.9807765],[80.2210565,12.9805552],[80.2210755,12.9802805],[80.2210826,12.9801776],[80.2210873,12.9800405],[80.2210909,12.9799885],[80.2211016,12.9797452],[80.2211068,12.9796274],[80.221109,12.9795872],[80.2211287,12.979223],[80.2211311,12.9791794],[80.2211391,12.9790322],[80.2211452,12.9789188],[80.221148,12.9787549],[80.2211496,12.9786619],[80.221155,12.9786104],[80.2211596,12.97858],[80.2211625,12.978553],[80.2211783,12.9782956],[80.2211808,12.9782556],[80.2211832,12.9782163],[80.2212006,12.9778953],[80.2212061,12.9777947],[80.2212061,12.9777428],[80.221206,12.9775302],[80.221206,12.9775013],[80.2212104,12.9770381],[80.2212169,12.9767901],[80.2212122,12.9764607],[80.2212166,12.9763056],[80.2212424,12.9762165],[80.2212565,12.9761756],[80.2213325,12.9760873],[80.2212421,12.9760295],[80.2211689,12.9759744],[80.2211155,12.975928],[80.2210595,12.9758737],[80.220940849426,12.975736537604265],[80.2209235,12.9757259],[80.2208423,12.9756871],[80.2207455,12.9756531],[80.2206706,12.9756388],[80.2205984,12.9756328],[80.2205283,12.9756348],[80.22048123830392,12.975643086400789],[80.2204643,12.975663],[80.2204375,12.9757042],[80.2203908,12.9757761],[80.2203358,12.9758819],[80.2202782,12.9760035],[80.2202098,12.9761446],[80.220161,12.9762715],[80.2201547,12.9762902],[80.2201404,12.9763325],[80.2200871,12.9764609],[80.2199529,12.9767862],[80.2197972,12.9771638],[80.219544,12.9778115],[80.2195174,12.9778732],[80.2195108,12.9778859],[80.2194824,12.9779563],[80.2194198,12.9780888],[80.2193279,12.9781365],[80.2192714,12.9782778],[80.2192141,12.9784301],[80.2191661,12.9784912],[80.2191223,12.9786006],[80.2189747,12.9789466],[80.2188732,12.9791846],[80.2188657,12.9792023],[80.2188571,12.9792233],[80.2186079,12.979837],[80.2185082,12.9800687],[80.2184738,12.9801601],[80.2181539,12.9810652],[80.218045,12.9814726],[80.2180099,12.9816967],[80.2179644,12.9821535],[80.217943,12.9823974],[80.217945,12.9825835],[80.2179426,12.9833477],[80.217938,12.9842224],[80.2179249,12.984981],[80.2179596,12.9855999],[80.2180065,12.9858545],[80.218147,12.9864574],[80.2182983,12.9872854],[80.2183244,12.987429]],"projection":"Local equirectangular metres, X east / Z south","elevation":"Flat gameplay surface; no surveyed elevation or drivable multilevel interchange","roadWays":164,"interiorNames":["Bajannai Street","Brahmin Street","Dhandeeshwaram Colony","Dhroupathy Amman Koil Street","JagannathaPuram 1st Cross Street","JagannathaPuram 1st Main road","JagannathaPuram 2nd Main road","JagannathaPuram 2nd Street","JagannathaPuram 3rd Main Road","Janakpuri 2nd Street","Lakshmipuram 3rd street","Lakshmipuram Main Road","Lakshmipuram Street","Nattar Street","Pillaiyar Koil Lane","Pillaiyar Koil Street","RajaLaxmi Nagar 10 Street","RajaLaxmi Nagar 10th Street","RajaLaxmi Nagar 1st main Road","RajaLaxmi Nagar 2nd main Road","RajaLaxmi Nagar 3rd Main Road","RajaLaxmi Nagar 5th cross Street","RajaLaxmi Nagar 6th Cross Street","Rajalakshmi Nagar 7th Cross Street","Telungu Brahmin Street"]},"features":[{"type":"Feature","properties":{"osmId":22688386,"alt_name":"Bypass Road","cycleway":"lane","highway":"primary","lanes":"2","maxspeed":"50","name":"Velachery Bypass Road","name:ta":"\u0bb5\u0bc7\u0bb3\u0b9a\u0bcd\u0b9a\u0bc7\u0bb0\u0bbf \u0baa\u0bc1\u0bb1\u0bb5\u0bb4\u0bbf\u0b9a\u0bcd \u0b9a\u0bbe\u0bb2\u0bc8","oneway":"yes","ref":"SH48C","surface":"asphalt","interior":false},"geometry":{"type":"LineString","coordinates":[[80.2195754,12.9914347],[80.2194831,12.9913387],[80.2192192,12.9905678],[80.2190505,12.9900535],[80.2188598,12.989549],[80.2186829,12.989059],[80.2185317,12.9885832],[80.2184679,12.9883119],[80.2184169,12.9879978],[80.2183244,12.987429]]}},{"type":"Feature","properties":{"osmId":23079581,"highway":"tertiary","lanes":"2","name":"RajaLaxmi Nagar 3rd Main Road","interior":true},"geometry":{"type":"LineString","coordinates":[[80.217938,12.9842224],[80.2185792,12.9843056],[80.2187995,12.9843314],[80.218905,12.9843438],[80.2189374,12.9843476],[80.219046,12.9843603],[80.2190934,12.9843659]]}},{"type":"Feature","properties":{"osmId":23641752,"highway":"primary_link","oneway":"yes","interior":false},"geometry":{"type":"LineString","coordinates":[[80.2040544,13.0127185],[80.2041018,13.012612],[80.2040394,13.0121361],[80.2039005,13.0114609],[80.2038465,13.0109954],[80.2038252,13.0102474],[80.2038275,13.0095986],[80.2038422,13.0094243],[80.2038552,13.0091369],[80.2038848,13.0089642],[80.20392,13.0088152],[80.2039512,13.0087057],[80.2039882,13.0086162],[80.2040391,13.0085286],[80.2040799,13.008483],[80.2041208,13.0084448],[80.2041754,13.0084044],[80.2042798,13.0083416],[80.2044047,13.0082742],[80.2045652,13.0081974],[80.2047571,13.0081051],[80.2049078,13.0080412],[80.2050906,13.0079673],[80.2052068,13.0079287],[80.2053643,13.0078862],[80.2055142,13.0078569],[80.2057468,13.00782],[80.2060181,13.0078053],[80.2061372,13.0077549]]}},{"type":"Feature","properties":{"osmId":23641764,"bridge":"yes","highway":"primary","layer":"1","motorroad":"no","name":"Guindy Bridge","official_name":"Grand Southern Trunk Road","oneway":"yes","ref":"SHU88","interior":false},"geometry":{"type":"LineString","coordinates":[[80.2157351,13.0102073],[80.2155795,13.0101533],[80.2147928,13.0100639],[80.2147351,13.010055]]}},{"type":"Feature","properties":{"osmId":23642057,"highway":"primary","motorroad":"no","name":"Anna Salai (Mount Road)","name:etymology:wikidata":"Q138765","official_name":"Grand Southern Trunk Road","oneway":"yes","ref":"SHU88","surface":"asphalt","interior":false},"geometry":{"type":"LineString","coordinates":[[80.2061372,13.0077549],[80.2061468,13.007757],[80.2065299,13.0078414]]}},{"type":"Feature","properties":{"osmId":25689918,"bicycle":"yes","cycleway":"lane","foot":"yes","highway":"primary","lanes":"2","maxspeed":"50","motorroad":"no","name":"Taramani Link Road","name:ta":"\u0ba4\u0bb0\u0bae\u0ba3\u0bbf \u0b9a\u0bbe\u0bb2\u0bc8","old_ref":"MDR752","oneway":"yes","ref":"SH48B","surface":"asphalt","interior":false},"geometry":{"type":"LineString","coordinates":[[80.2227628,12.9769934],[80.223144,12.9772234],[80.2235307,12.9774565],[80.2246021,12.9781163],[80.224769,12.9782125],[80.225,12.978345777689619]]}},{"type":"Feature","properties":{"osmId":27320135,"highway":"residential","interior":true},"geometry":{"type":"LineString","coordinates":[[80.2210148,12.9810784],[80.2206807,12.9811104],[80.2206398,12.9811248],[80.2206147,12.9811475],[80.2205928,12.9811744],[80.2205841,12.9812084],[80.2205372,12.9816619],[80.2205287,12.9817112],[80.220513,12.9817429],[80.2204835,12.9817573],[80.2204514,12.9817586],[80.2203738,12.9817578],[80.2199103,12.9817464],[80.2195492,12.9816668],[80.2192985,12.9816333],[80.218709,12.9815596],[80.2185799,12.9815404],[80.218045,12.9814726]]}},{"type":"Feature","properties":{"osmId":27355065,"highway":"residential","name":"JagannathaPuram 1st Main road","interior":true},"geometry":{"type":"LineString","coordinates":[[80.2218285,12.9842286],[80.221748,12.9845724],[80.221753,12.9848498],[80.221748,12.9851327],[80.221439,12.9854589],[80.22094,12.9856707],[80.2207357,12.9857678]]}},{"type":"Feature","properties":{"osmId":27355067,"highway":"residential","name":"JagannathaPuram 2nd Street","interior":true},"geometry":{"type":"LineString","coordinates":[[80.2203291,12.9844422],[80.2203694,12.9850342],[80.2204377,12.9858568]]}},{"type":"Feature","properties":{"osmId":27355070,"highway":"residential","name":"RajaLaxmi Nagar 2nd main Road","interior":true},"geometry":{"type":"LineString","coordinates":[[80.220674,12.985002],[80.2203694,12.9850342],[80.2198983,12.9850431],[80.2194567,12.9850434],[80.2190836,12.9850341],[80.2185684,12.9850183],[80.2179249,12.984981]]}},{"type":"Feature","properties":{"osmId":27355073,"highway":"residential","name":"RajaLaxmi Nagar 6th Cross Street","interior":true},"geometry":{"type":"LineString","coordinates":[[80.2194567,12.9850434],[80.2194255,12.9856167]]}},{"type":"Feature","properties":{"osmId":27355075,"highway":"residential","name":"RajaLaxmi Nagar 5th cross Street","interior":true},"geometry":{"type":"LineString","coordinates":[[80.2199068,12.9844386],[80.2198983,12.9850431],[80.2198959,12.986027]]}},{"type":"Feature","properties":{"osmId":27355078,"highway":"residential","name":"Janakpuri 2nd Street","interior":true},"geometry":{"type":"LineString","coordinates":[[80.2200337,12.9885531],[80.2186829,12.989059]]}},{"type":"Feature","properties":{"osmId":27355084,"highway":"residential","name":"Lakshmipuram Street","interior":true},"geometry":{"type":"LineString","coordinates":[[80.2216268,12.9866349],[80.2216946,12.9868068],[80.2217006,12.9868316],[80.2216996,12.9868518],[80.2216798,12.9868676],[80.2216597,12.986876],[80.2207679,12.9872524],[80.2205573,12.9873596],[80.2203514,12.9874826],[80.2201224,12.9876066],[80.2199697,12.9876831],[80.2195527,12.9878817],[80.219374,12.987961],[80.2193054,12.9879696]]}},{"type":"Feature","properties":{"osmId":27355089,"highway":"residential","lanes":"1","maxspeed":"20","name":"Lakshmipuram Main Road","oneway":"no","surface":"concrete","interior":true},"geometry":{"type":"LineString","coordinates":[[80.2229796,12.9859715],[80.2227971,12.9859723],[80.2226357,12.986113],[80.2225723,12.9862448],[80.2223488,12.9863705],[80.2222179,12.9863942],[80.2219883,12.9864374],[80.2218676,12.9865141],[80.2216268,12.9866349],[80.2215338,12.9866742],[80.2211815,12.9868222]]}},{"type":"Feature","properties":{"osmId":27355096,"highway":"residential","interior":true},"geometry":{"type":"LineString","coordinates":[[80.2192985,12.9816333],[80.2193281,12.9819273],[80.2193862,12.9822755],[80.2194002,12.9825196]]}},{"type":"Feature","properties":{"osmId":27355136,"highway":"residential","interior":true},"geometry":{"type":"LineString","coordinates":[[80.2217186,12.9822402],[80.2205961,12.9822366],[80.2199336,12.9822548],[80.2193862,12.9822755]]}},{"type":"Feature","properties":{"osmId":27370104,"highway":"residential","interior":true},"geometry":{"type":"LineString","coordinates":[[80.2210238,12.9843099],[80.2210173,12.9837531],[80.2219798,12.9836808]]}},{"type":"Feature","properties":{"osmId":27370109,"highway":"residential","name":"Pillaiyar Koil Street","interior":true},"geometry":{"type":"LineString","coordinates":[[80.2186299,12.9825879],[80.2186143,12.9824291],[80.218709,12.9815596]]}},{"type":"Feature","properties":{"osmId":27370233,"highway":"residential","interior":true},"geometry":{"type":"LineString","coordinates":[[80.2202632,12.9826892],[80.2203007,12.9832257]]}},{"type":"Feature","properties":{"osmId":27370236,"highway":"residential","interior":true},"geometry":{"type":"LineString","coordinates":[[80.2186079,12.979837],[80.2191856,12.9799592]]}},{"type":"Feature","properties":{"osmId":27480309,"highway":"secondary","lanes":"2","name":"Velachery Main Road","name:etymology:wikidata":"Q7918771","name:ta":"\u0bb5\u0bc7\u0bb3\u0b9a\u0bcd\u0b9a\u0bc7\u0bb0\u0bbf \u0bae\u0bc1\u0ba4\u0ba9\u0bcd\u0bae\u0bc8\u0b9a\u0bcd \u0b9a\u0bbe\u0bb2\u0bc8","old_ref":"SH48","oneway":"no","surface":"asphalt","interior":false},"geometry":{"type":"LineString","coordinates":[[80.221206,12.9775013],[80.221206,12.9775302],[80.2212061,12.9777428],[80.2212061,12.9777947],[80.2212006,12.9778953],[80.2211832,12.9782163],[80.2211808,12.9782556],[80.2211783,12.9782956],[80.2211625,12.978553],[80.2211596,12.97858],[80.221155,12.9786104],[80.2211496,12.9786619],[80.221148,12.9787549],[80.2211452,12.9789188],[80.2211391,12.9790322],[80.2211311,12.9791794],[80.2211287,12.979223],[80.221109,12.9795872],[80.2211068,12.9796274],[80.2211016,12.9797452],[80.2210909,12.9799885],[80.2210873,12.9800405],[80.2210826,12.9801776],[80.2210755,12.9802805],[80.2210565,12.9805552],[80.2210445,12.9807765],[80.2210148,12.9810784],[80.2210859,12.981247],[80.221117,12.9813206],[80.2215039,12.9818333],[80.2217186,12.9822402],[80.2218538,12.9825674],[80.2218989,12.9827629],[80.2219894,12.9829338],[80.2221099,12.9831615],[80.2225076,12.9838003],[80.2225223,12.9838238],[80.2226277,12.9839929],[80.2226639,12.9840511],[80.2228777,12.9843858],[80.2231255,12.9847671],[80.2232491,12.9850804],[80.2232618,12.9851127],[80.2233058,12.985361],[80.2233142,12.9854614],[80.2230311,12.9857206],[80.2229796,12.9859715],[80.2229732,12.9861768],[80.2229705,12.9864666],[80.2230567,12.9870692],[80.2230821,12.9873016],[80.2230974,12.9876327],[80.2230826,12.9877398],[80.2230746,12.9877973],[80.223065,12.9878213],[80.2230558,12.9878444],[80.2229244,12.9880352],[80.2227406,12.9882717],[80.2223986,12.9886651],[80.222389,12.9886732],[80.2221745,12.9888541],[80.2221549,12.9888707],[80.2220104,12.9889818],[80.2216446,12.9892802],[80.2214745,12.9894189],[80.2213262,12.9895414],[80.2209708,12.989835],[80.2208438,12.98994],[80.2207226,12.9901027]]}},{"type":"Feature","properties":{"osmId":28066334,"highway":"primary","lane_markings":"yes","lanes":"4","motorroad":"no","name":"Anna Salai (Mount Road)","name:etymology:wikidata":"Q138765","official_name":"Grand Southern Trunk Road","oneway":"yes","ref":"SHU88","ref:old":"NH45","surface":"asphalt","interior":false},"geometry":{"type":"LineString","coordinates":[[80.2210646,13.0121486],[80.220237,13.0118669],[80.2200195,13.0118013],[80.2198779,13.0117586],[80.2183624,13.0112821]]}},{"type":"Feature","properties":{"osmId":28067365,"bridge":"yes","highway":"primary","layer":"1","motorroad":"no","name":"Guindy Bridge","official_name":"Grand Southern Trunk Road","oneway":"yes","ref":"SHU88","interior":false},"geometry":{"type":"LineString","coordinates":[[80.2147387,13.0101593],[80.2149099,13.0101861],[80.2156045,13.0102759],[80.2157666,13.0103174],[80.2159111,13.0103818]]}},{"type":"Feature","properties":{"osmId":29502952,"highway":"residential","interior":true},"geometry":{"type":"LineString","coordinates":[[80.2201224,12.9876066],[80.2203267,12.9881142]]}},{"type":"Feature","properties":{"osmId":29503007,"highway":"residential","name":"RajaLaxmi Nagar 10th Street","interior":true},"geometry":{"type":"LineString","coordinates":[[80.2190934,12.9843659],[80.2190836,12.9850341]]}},{"type":"Feature","properties":{"osmId":29503032,"highway":"residential","name":"Bajannai Street","interior":true},"geometry":{"type":"LineString","coordinates":[[80.2194002,12.9825196],[80.2194177,12.9826813],[80.2194509,12.9831315],[80.2194563,12.9832378]]}},{"type":"Feature","properties":{"osmId":29503047,"highway":"residential","name":"Telungu Brahmin Street","interior":true},"geometry":{"type":"LineString","coordinates":[[80.2194177,12.9826813],[80.2199412,12.9826762],[80.2202632,12.9826892],[80.2218989,12.9827629]]}},{"type":"Feature","properties":{"osmId":29503164,"highway":"residential","name":"Pillaiyar Koil Lane","smoothness":"bad","surface":"concrete","interior":true},"geometry":{"type":"LineString","coordinates":[[80.2194002,12.9825196],[80.2186299,12.9825879]]}},{"type":"Feature","properties":{"osmId":29503165,"highway":"residential","name":"Brahmin Street","name:etymology:wikidata":"Q47140","interior":true},"geometry":{"type":"LineString","coordinates":[[80.2186392,12.9832611],[80.2194563,12.9832378],[80.2203007,12.9832257],[80.2218389,12.983189],[80.2221099,12.9831615]]}},{"type":"Feature","properties":{"osmId":30604301,"alt_name":"Bypass Road","cycleway":"lane","highway":"primary","lanes":"2","maxspeed":"50","name":"Velachery Bypass Road","name:ta":"\u0bb5\u0bc7\u0bb3\u0b9a\u0bcd\u0b9a\u0bc7\u0bb0\u0bbf \u0baa\u0bc1\u0bb1\u0bb5\u0bb4\u0bbf\u0b9a\u0bcd\u0b9a\u0bbe\u0bb2\u0bc8","oneway":"yes","ref":"SH48C","surface":"asphalt","interior":false},"geometry":{"type":"LineString","coordinates":[[80.2184003,12.9800212],[80.2183528,12.980154],[80.2182245,12.9805327],[80.2181063,12.9808335],[80.2180323,12.9810521],[80.2179376,12.9814337],[80.2179014,12.9817607],[80.2178757,12.9824126],[80.2178509,12.9829192],[80.2178405,12.9830905],[80.2178218,12.9833561],[80.2178344,12.9839511],[80.21784,12.9844609],[80.2178505,12.9852018],[80.217889,12.9856366],[80.2179865,12.9861744],[80.2180718,12.9865688],[80.2180785,12.986602],[80.2181306,12.9869397],[80.2181963,12.9874685]]}},{"type":"Feature","properties":{"osmId":30604302,"highway":"secondary","lanes":"2","maxspeed":"30","maxspeed:type":"sign","name":"Velachery Main Road","name:etymology:wikidata":"Q7918771","name:ta":"\u0bb5\u0bc7\u0bb3\u0b9a\u0bcd\u0b9a\u0bc7\u0bb0\u0bbf \u0bae\u0bc1\u0ba4\u0ba9\u0bcd\u0bae\u0bc8\u0b9a\u0bcd \u0b9a\u0bbe\u0bb2\u0bc8","old_ref":"SH48","oneway":"yes","surface":"asphalt","width":"8 m","interior":false},"geometry":{"type":"LineString","coordinates":[[80.2194071,12.9916774],[80.2185602,12.9928918],[80.217978,12.993697],[80.2177732,12.9939784]]}},{"type":"Feature","properties":{"osmId":30606815,"highway":"living_street","interior":true},"geometry":{"type":"LineString","coordinates":[[80.2199697,12.9876831],[80.2196329,12.9868709]]}},{"type":"Feature","properties":{"osmId":30606823,"highway":"residential","interior":true},"geometry":{"type":"LineString","coordinates":[[80.2222179,12.9863942],[80.2222611,12.9865963],[80.2223251,12.9870172],[80.2223641,12.9872452]]}},{"type":"Feature","properties":{"osmId":32545042,"highway":"secondary","lanes":"2","name":"Velachery Main Road","name:etymology:wikidata":"Q7918771","name:ta":"\u0bb5\u0bc7\u0bb3\u0b9a\u0bcd\u0b9a\u0bc7\u0bb0\u0bbf \u0bae\u0bc1\u0ba4\u0ba9\u0bcd\u0bae\u0bc8\u0b9a\u0bcd \u0b9a\u0bbe\u0bb2\u0bc8","old_ref":"SH48","oneway":"yes","surface":"asphalt","interior":false},"geometry":{"type":"LineString","coordinates":[[80.2232552,13.0114027],[80.2228526,13.010512],[80.2220148,13.0090503],[80.2214226,13.0079511],[80.2213253,13.0077525],[80.221007,13.0071743],[80.2209625,13.0070935],[80.2207363,13.0066827],[80.2204252,13.0053431],[80.2202788,13.0046421],[80.2201035,13.0037964],[80.2199237,13.0031743],[80.2197687,13.0028041],[80.2196297,13.0025718],[80.2195863,13.0025054],[80.2190942,13.0020227],[80.2189694,13.0019103],[80.2188661,13.0018126],[80.2185906,13.0015381],[80.2185738,13.0015079],[80.2184589,13.0013357],[80.2183851,13.0012272],[80.2183203,13.0011272],[80.2182493,13.0010192],[80.2181795,13.0009068],[80.2180473,13.0006916],[80.2177932,13.0002991],[80.21697,12.9989409],[80.2166954,12.9983332],[80.2165705,12.9978767],[80.216543,12.9975572],[80.2165418,12.9974054],[80.2165504,12.9972089],[80.2165526,12.9971743]]}},{"type":"Feature","properties":{"osmId":32551517,"highway":"primary","motorroad":"no","name":"Anna Salai (Mount Road)","name:etymology:wikidata":"Q138765","official_name":"Grand Southern Trunk Road","oneway":"yes","ref":"SHU88","ref:old":"NH45","surface":"asphalt","interior":false},"geometry":{"type":"LineString","coordinates":[[80.2170576,13.0109201],[80.2177451,13.0112364],[80.2182615,13.0114059],[80.2183234,13.0114262],[80.2183858,13.0114467],[80.2186969,13.0115489],[80.2189668,13.0116375],[80.2195346,13.0118239],[80.2202105,13.0120458],[80.2208047,13.0122686],[80.2210838,13.012363]]}},{"type":"Feature","properties":{"osmId":32551518,"highway":"primary","lit":"yes","maxheight:signed":"no","motorroad":"no","name":"Anna Salai (Mount Road)","name:etymology:wikidata":"Q138765","official_name":"Grand Southern Trunk Road","oneway":"yes","ref":"SHU88","interior":false},"geometry":{"type":"LineString","coordinates":[[80.2147351,13.010055],[80.214537,13.0100114],[80.2132841,13.0094865],[80.2123151,13.0091122],[80.2121572,13.0090527],[80.2113572,13.0087515],[80.211037,13.0086309],[80.2108217,13.0085498],[80.2106348,13.0084794],[80.2100273,13.0082693],[80.2097415,13.008165]]}},{"type":"Feature","properties":{"osmId":83912307,"highway":"tertiary","name":"Dhroupathy Amman Koil Street","interior":true},"geometry":{"type":"LineString","coordinates":[[80.2230567,12.9870692],[80.2223641,12.9872452],[80.2221845,12.9873185],[80.2219662,12.9874128],[80.2219036,12.987436],[80.221345,12.9876696],[80.2212458,12.9877111],[80.2205954,12.9879964],[80.2203267,12.9881142],[80.2201434,12.9881703],[80.2199253,12.988206],[80.2195555,12.988273],[80.2192208,12.9883431],[80.2185317,12.9885832]]}},{"type":"Feature","properties":{"osmId":98639495,"highway":"primary","lanes":"2","lit":"yes","maxspeed":"40","motorroad":"no","name":"Inner Ring Road (Southern Sector)","name:ta":"\u0b89\u0bb3\u0bcd\u0bb5\u0b9f\u0bcd\u0b9f\u0b9a\u0bcd \u0b9a\u0bbe\u0bb2\u0bc8","oneway":"yes","ref":"SH2A","surface":"asphalt","interior":false},"geometry":{"type":"LineString","coordinates":[[80.2157378,12.9685541],[80.215569,12.9687091],[80.2135887,12.9703817],[80.2122459,12.9715434],[80.2116082,12.9720929],[80.2107077,12.9728689],[80.209942,12.9735511],[80.2098967,12.9736228]]}},{"type":"Feature","properties":{"osmId":108328797,"highway":"primary","lanes":"2","lit":"yes","maxspeed":"40","name":"Inner Ring Road (Southern Sector)","name:ta":"\u0b89\u0bb3\u0bcd\u0bb5\u0b9f\u0bcd\u0b9f\u0b9a\u0bcd \u0b9a\u0bbe\u0bb2\u0bc8","oneway":"yes","ref":"SH2A","surface":"asphalt","interior":false},"geometry":{"type":"LineString","coordinates":[[80.2173491,12.9680951],[80.2170199,12.968244],[80.2165066,12.9685244],[80.2164444,12.9685584],[80.2158242,12.9689737],[80.2102364,12.9736413],[80.2101176,12.9737176]]}},{"type":"Feature","properties":{"osmId":121120060,"highway":"primary","maxspeed":"40","motorroad":"no","name":"Inner Ring Road (Southern Sector)","name:ta":"\u0b89\u0bb3\u0bcd\u0bb5\u0b9f\u0bcd\u0b9f\u0b9a\u0bcd \u0b9a\u0bbe\u0bb2\u0bc8","oneway":"yes","ref":"SH2A","surface":"asphalt","interior":false},"geometry":{"type":"LineString","coordinates":[[80.2038,12.978355716194447],[80.2041615,12.9781504],[80.2043852,12.9780035]]}},{"type":"Feature","properties":{"osmId":131945991,"alt_name":"Mount road","highway":"primary","lanes":"1","maxspeed":"50","motorroad":"no","name":"Anna Salai (Mount Road)","name:etymology:wikidata":"Q138765","official_name":"Grand Southern Trunk Road","oneway":"yes","ref":"SHU88","ref:old":"NH45","surface":"asphalt","interior":false},"geometry":{"type":"LineString","coordinates":[[80.2210838,13.012363],[80.2214073,13.0125375],[80.2217111,13.0127667],[80.2222984,13.0132316],[80.2225801,13.0134197],[80.2227546,13.0135593],[80.2229474,13.0137136],[80.2230238,13.0137747],[80.2231962,13.0139125],[80.2232656,13.0139131]]}},{"type":"Feature","properties":{"osmId":131945993,"highway":"primary","motorroad":"no","name":"Sardar Patel Road","name:etymology:wikidata":"Q9455","oneway":"yes","ref:new":"N 32","interior":false},"geometry":{"type":"LineString","coordinates":[[80.2215754,13.0120189],[80.2214388,13.0121592],[80.2214204,13.0122634],[80.221437,13.0123569],[80.2214766,13.012414],[80.2214953,13.0124371]]}},{"type":"Feature","properties":{"osmId":175844953,"highway":"primary","motorroad":"no","name":"Anna Salai (Mount Road)","name:etymology:wikidata":"Q138765","official_name":"Grand Southern Trunk Road","oneway":"yes","ref":"SHU88","ref:old":"NH45","interior":false},"geometry":{"type":"LineString","coordinates":[[80.2163283,13.0104614],[80.2161068,13.0103628],[80.2157351,13.0102073]]}},{"type":"Feature","properties":{"osmId":175844955,"comment":"diversion for metro","highway":"primary","lanes":"2","maxheight:signed":"no","motorroad":"no","name":"Anna Salai (Mount Road)","name:etymology:wikidata":"Q138765","official_name":"Grand Southern Trunk Road","oneway":"yes","ref":"SHU88","ref:old":"NH45","surface":"paved","interior":false},"geometry":{"type":"LineString","coordinates":[[80.2183624,13.0112821],[80.2183001,13.0112603],[80.2177888,13.0110812],[80.2175107,13.0109838],[80.2170709,13.010795],[80.21688,13.010708],[80.2168423,13.0106908]]}},{"type":"Feature","properties":{"osmId":203214151,"alt_name":"Bypass Road","cycleway":"lane","highway":"primary","lanes":"2","maxspeed":"50","name":"Velachery Bypass Road","name:ta":"\u0bb5\u0bc7\u0bb3\u0b9a\u0bcd\u0b9a\u0bc7\u0bb0\u0bbf \u0baa\u0bc1\u0bb1\u0bb5\u0bb4\u0bbf\u0b9a\u0bcd\u0b9a\u0bbe\u0bb2\u0bc8","oneway":"yes","ref":"SH48C","surface":"asphalt","interior":false},"geometry":{"type":"LineString","coordinates":[[80.2181963,12.9874685],[80.2182739,12.9878446],[80.2183668,12.9882927],[80.21844,12.9885708],[80.2184557,12.9886446],[80.2185157,12.9888501],[80.2185287,12.9888945],[80.2185873,12.9890953],[80.2187643,12.9895845],[80.2189513,12.9900955],[80.2191244,12.990597],[80.219285,12.9910672],[80.2193951,12.991406]]}},{"type":"Feature","properties":{"osmId":204209805,"alt_name":"Mount Road","highway":"primary","lit":"yes","motorroad":"no","name":"Anna Salai (Mount Road)","name:etymology:wikidata":"Q138765","official_name":"Grand Southern Trunk Road","oneway":"yes","ref":"SHU88","interior":false},"geometry":{"type":"LineString","coordinates":[[80.2093905,13.0080754],[80.2087018,13.0079581],[80.2083788,13.0079103],[80.2079749,13.0078499],[80.2079139,13.0078415],[80.2070545,13.0077142]]}},{"type":"Feature","properties":{"osmId":204242709,"highway":"secondary","lanes":"2","maxspeed":"10","maxspeed:type":"sign","name":"Velachery Main Road","name:etymology:wikidata":"Q7918771","name:ta":"\u0bb5\u0bc7\u0bb3\u0b9a\u0bcd\u0b9a\u0bc7\u0bb0\u0bbf \u0bae\u0bc1\u0ba4\u0ba9\u0bcd\u0bae\u0bc8\u0b9a\u0bcd \u0b9a\u0bbe\u0bb2\u0bc8","old_ref":"SH48","oneway":"yes","surface":"paved","interior":false},"geometry":{"type":"LineString","coordinates":[[80.2195415,12.9916407],[80.2195803,12.9915827]]}},{"type":"Feature","properties":{"osmId":204242711,"highway":"secondary","name":"Velachery Main Road","name:etymology:wikidata":"Q7918771","name:ta":"\u0bb5\u0bc7\u0bb3\u0b9a\u0bcd\u0b9a\u0bc7\u0bb0\u0bbf \u0bae\u0bc1\u0ba4\u0ba9\u0bcd\u0bae\u0bc8\u0b9a\u0bcd \u0b9a\u0bbe\u0bb2\u0bc8","old_ref":"SH48","oneway":"yes","surface":"asphalt","interior":false},"geometry":{"type":"LineString","coordinates":[[80.2200604,12.9908509],[80.2199724,12.990958],[80.2199522,12.9909826],[80.219817,12.9911401],[80.2196439,12.9913628],[80.2195754,12.9914347]]}},{"type":"Feature","properties":{"osmId":205773150,"highway":"secondary","lanes":"2","maxspeed":"30","maxspeed:type":"sign","name":"Velachery Main Road","name:etymology:wikidata":"Q7918771","name:ta":"\u0bb5\u0bc7\u0bb3\u0b9a\u0bcd\u0b9a\u0bc7\u0bb0\u0bbf \u0bae\u0bc1\u0ba4\u0ba9\u0bcd\u0bae\u0bc8\u0b9a\u0bcd \u0b9a\u0bbe\u0bb2\u0bc8","old_ref":"SH48","oneway":"yes","surface":"asphalt","interior":false},"geometry":{"type":"LineString","coordinates":[[80.2171837,12.9948066],[80.2170866,12.9949281],[80.216889,12.9952305],[80.216772,12.9954753],[80.2166763,12.9957898],[80.216596,12.9961312],[80.2165551,12.996395],[80.2165233,12.9967108],[80.2164954,12.9969698],[80.216481,12.9971957]]}},{"type":"Feature","properties":{"osmId":205773352,"highway":"secondary","maxspeed":"10","maxspeed:type":"sign","name":"Velachery Main Road","name:etymology:wikidata":"Q7918771","name:ta":"\u0bb5\u0bc7\u0bb3\u0b9a\u0bcd\u0b9a\u0bc7\u0bb0\u0bbf \u0bae\u0bc1\u0ba4\u0ba9\u0bcd\u0bae\u0bc8\u0b9a\u0bcd \u0b9a\u0bbe\u0bb2\u0bc8","old_ref":"SH48","oneway":"yes","surface":"paved","interior":false},"geometry":{"type":"LineString","coordinates":[[80.2195142,12.9915156],[80.2194729,12.9915806]]}},{"type":"Feature","properties":{"osmId":205781317,"highway":"secondary","lanes":"2","maxspeed":"30","maxspeed:type":"sign","name":"Velachery Main Road","name:etymology:wikidata":"Q7918771","name:ta":"\u0bb5\u0bc7\u0bb3\u0b9a\u0bcd\u0b9a\u0bc7\u0bb0\u0bbf \u0bae\u0bc1\u0ba4\u0ba9\u0bcd\u0bae\u0bc8\u0b9a\u0bcd \u0b9a\u0bbe\u0bb2\u0bc8","old_ref":"SH48","oneway":"yes","surface":"asphalt","interior":false},"geometry":{"type":"LineString","coordinates":[[80.216481,12.9971957],[80.2164696,12.9972779],[80.2164502,12.9974127],[80.2164543,12.9975628],[80.2164842,12.997884],[80.2166055,12.9983616],[80.2168763,12.9989999],[80.2171846,12.9994867],[80.2172803,12.9996379],[80.2177247,13.0003399],[80.2181298,13.0010053],[80.2185305,13.0015861],[80.2187738,13.0018314],[80.2191719,13.002203],[80.2195235,13.0025487],[80.2196333,13.0027205],[80.219754,13.0029505],[80.2198614,13.0032469],[80.2202225,13.0048514],[80.2203412,13.0053644],[80.2206349,13.0067055],[80.2207179,13.0068794],[80.2209244,13.0072994],[80.2216254,13.0085847],[80.221904,13.0091239],[80.2219427,13.0091952],[80.2219935,13.0092835],[80.2220619,13.0094026],[80.2221748,13.0095903],[80.2223523,13.0098728],[80.2229968,13.0110585],[80.2230702,13.0112009]]}},{"type":"Feature","properties":{"osmId":205781579,"highway":"secondary","lanes":"1","maxspeed":"20","maxspeed:type":"sign","name":"Velachery Main Road","name:etymology:wikidata":"Q7918771","name:ta":"\u0bb5\u0bc7\u0bb3\u0b9a\u0bcd\u0b9a\u0bc7\u0bb0\u0bbf \u0bae\u0bc1\u0ba4\u0ba9\u0bcd\u0bae\u0bc8\u0b9a\u0bcd \u0b9a\u0bbe\u0bb2\u0bc8","old_ref":"SH48","oneway":"yes","surface":"asphalt","width":"5 m","interior":false},"geometry":{"type":"LineString","coordinates":[[80.2177732,12.9939784],[80.2177442,12.9940178],[80.2171837,12.9948066]]}},{"type":"Feature","properties":{"osmId":209549878,"highway":"primary","maxspeed":"40","oneway":"yes","surface":"asphalt","interior":false},"geometry":{"type":"LineString","coordinates":[[80.2186821,12.969783],[80.2186666,12.9697227],[80.218542,12.9693871],[80.2181005,12.9683474],[80.2180871,12.9683147],[80.2179925,12.9680849],[80.2179804,12.9680554],[80.2179496,12.9679942],[80.2179199,12.9679492],[80.2178823,12.9679176],[80.2178417,12.9679166],[80.217773,12.9679377],[80.2175688,12.9680097]]}},{"type":"Feature","properties":{"osmId":209549882,"highway":"primary","lane_markings":"no","maxspeed":"40","motorroad":"no","name":"Velachery Main Road","name:etymology:wikidata":"Q7918771","name:ta":"\u0bb5\u0bc7\u0bb3\u0b9a\u0bcd\u0b9a\u0bc7\u0bb0\u0bbf \u0bae\u0bc1\u0ba4\u0ba9\u0bcd\u0bae\u0bc8\u0b9a\u0bcd \u0b9a\u0bbe\u0bb2\u0bc8","official_name":"Marmalong Bridge - Irumbuliyur - Vandalur - Mudichur - Oragadam - Walajabad Road","oneway":"yes","ref":"SH48","surface":"asphalt","width":"30'","interior":false},"geometry":{"type":"LineString","coordinates":[[80.2192164,12.971874],[80.2193013,12.9721056],[80.2193384,12.9722123],[80.2193657,12.9722934],[80.219444,12.9725328],[80.2195567,12.9728334],[80.2196208,12.9730441],[80.2196895,12.9732392],[80.2197715,12.9734225],[80.2198489,12.9736112],[80.2199475,12.9738151],[80.2203135,12.9746827],[80.2203873,12.9748524],[80.2204485,12.9749841],[80.2204894,12.97508],[80.2205268,12.9751575],[80.2205615,12.9752275],[80.2206741,12.9754256],[80.2207189,12.9754853],[80.2207817,12.9755689]]}},{"type":"Feature","properties":{"osmId":209549883,"highway":"primary","motorroad":"no","name":"Inner Ring Road (Southern Sector)","ref":"SH2A","interior":false},"geometry":{"type":"LineString","coordinates":[[80.2101176,12.9737176],[80.2099693,12.973591]]}},{"type":"Feature","properties":{"osmId":214413798,"highway":"primary","motorroad":"no","name":"Anna Salai (Mount Road)","name:etymology:wikidata":"Q138765","official_name":"Grand Southern Trunk Road","oneway":"yes","ref":"SHU88","surface":"asphalt","interior":false},"geometry":{"type":"LineString","coordinates":[[80.2116525,13.0090089],[80.2119419,13.0091091],[80.2120715,13.0091513],[80.2132444,13.009582],[80.214487,13.010098],[80.2147387,13.0101593]]}},{"type":"Feature","properties":{"osmId":232405627,"highway":"residential","interior":true},"geometry":{"type":"LineString","coordinates":[[80.2195492,12.9816668],[80.2195217,12.9810338],[80.2195172,12.9808638],[80.2195144,12.9806071],[80.2195037,12.9805721],[80.2190936,12.9804894]]}},{"type":"Feature","properties":{"osmId":244466147,"highway":"primary","maxspeed":"40","motorroad":"no","name":"Inner Ring Road (Southern Sector)","name:ta":"\u0b89\u0bb3\u0bcd\u0bb5\u0b9f\u0bcd\u0b9f\u0b9a\u0bcd \u0b9a\u0bbe\u0bb2\u0bc8","oneway":"yes","ref":"SH2A","surface":"asphalt","interior":false},"geometry":{"type":"LineString","coordinates":[[80.2041456,12.9780086],[80.2038,12.978205062744056]]}},{"type":"Feature","properties":{"osmId":334830991,"highway":"residential","name":"RajaLaxmi Nagar 6th Cross Street","surface":"asphalt","interior":true},"geometry":{"type":"LineString","coordinates":[[80.21945,12.9861174],[80.2194201,12.985846],[80.2194255,12.9856167]]}},{"type":"Feature","properties":{"osmId":335531988,"highway":"residential","name":"JagannathaPuram 1st Cross Street","interior":true},"geometry":{"type":"LineString","coordinates":[[80.22094,12.9856707],[80.2209088,12.9849623]]}},{"type":"Feature","properties":{"osmId":336060552,"highway":"residential","name":"Nattar Street","name:en":"Nattar Street","name:ta":"\u0ba8\u0bbe\u0b9f\u0bcd\u0b9f\u0bbe\u0bb0\u0bcd \u0ba4\u0bc6\u0bb0\u0bc1","interior":true},"geometry":{"type":"LineString","coordinates":[[80.2221196,12.9841279],[80.2219798,12.9836808],[80.2218389,12.983189]]}},{"type":"Feature","properties":{"osmId":422927231,"bicycle":"yes","cycleway":"lane","foot":"yes","highway":"primary","lanes":"2","lit":"yes","maxspeed":"50","motorroad":"no","name":"Taramani Road","name:ta":"\u0ba4\u0bb0\u0bae\u0ba3\u0bbf \u0b9a\u0bbe\u0bb2\u0bc8","official_name":"Marmalong Bridge - Irumbuliyur - Vandalur - Mudichur - Oragadam - Walajabad Road","oneway":"yes","ref":"SH48","surface":"asphalt","interior":false},"geometry":{"type":"LineString","coordinates":[[80.2207817,12.9755689],[80.2208087,12.9755957],[80.2208556,12.9756408],[80.2208967,12.9756855],[80.2210595,12.9758737],[80.2211155,12.975928]]}},{"type":"Feature","properties":{"osmId":422927236,"cycleway":"lane","highway":"primary","lanes":"2","maxspeed":"50","name":"Taramani Link Road","name:ta":"\u0ba4\u0bb0\u0bae\u0ba3\u0bbf \u0b9a\u0bbe\u0bb2\u0bc8","old_ref":"MDR752","oneway":"yes","ref":"SH48B","surface":"asphalt","interior":false},"geometry":{"type":"LineString","coordinates":[[80.225,12.978210361028411],[80.2249628,12.9781864],[80.2246931,12.9780101],[80.223619,12.9773685],[80.2231018,12.9770693],[80.2227896,12.976891],[80.2224858,12.9767092],[80.2222483,12.9765627],[80.2221184,12.9764773],[80.2217575,12.9762417],[80.2214036,12.9759943]]}},{"type":"Feature","properties":{"osmId":427336344,"highway":"residential","name":"Dhandeeshwaram Colony","interior":true},"geometry":{"type":"LineString","coordinates":[[80.221345,12.9876696],[80.2214635,12.9879384],[80.2215379,12.9880922],[80.2215569,12.9881195]]}},{"type":"Feature","properties":{"osmId":427336345,"highway":"residential","name":"Dhandeeshwaram Colony","interior":true},"geometry":{"type":"LineString","coordinates":[[80.2215569,12.9881195],[80.2215658,12.9881286],[80.2215792,12.9881351],[80.221597,12.988135],[80.2218435,12.9879688],[80.222095,12.9877753],[80.2221143,12.9877581],[80.2221254,12.9877365],[80.2221251,12.9877046],[80.2221022,12.987666],[80.2219662,12.9874128]]}},{"type":"Feature","properties":{"osmId":427336346,"highway":"residential","name":"Lakshmipuram 3rd street","interior":true},"geometry":{"type":"LineString","coordinates":[[80.2215338,12.9866742],[80.2214612,12.9863546],[80.2214532,12.9863344],[80.221444,12.9863252],[80.2214324,12.9863269],[80.2214128,12.9863342],[80.2211947,12.9864166],[80.2211595,12.9864304],[80.2211273,12.9864252],[80.2211085,12.9863965],[80.2210951,12.9863285],[80.2210897,12.986271],[80.2210917,12.9862527],[80.2211092,12.9862298],[80.22113,12.98622],[80.221307,12.9861599]]}},{"type":"Feature","properties":{"osmId":427336348,"highway":"residential","surface":"unpaved","interior":true},"geometry":{"type":"LineString","coordinates":[[80.2182983,12.9872854],[80.2187296,12.987178],[80.2188346,12.987153],[80.2192026,12.9870319],[80.2195701,12.9868886],[80.2196329,12.9868709],[80.219966,12.9867024],[80.2201979,12.9865925],[80.220413,12.9864954]]}},{"type":"Feature","properties":{"osmId":427338800,"highway":"residential","name":"Pillaiyar Koil Street","interior":true},"geometry":{"type":"LineString","coordinates":[[80.2186299,12.9825879],[80.2186392,12.9832611]]}},{"type":"Feature","properties":{"osmId":430799558,"highway":"residential","name":"JagannathaPuram 2nd Main road","interior":true},"geometry":{"type":"LineString","coordinates":[[80.221753,12.9848498],[80.2209088,12.9849623],[80.220674,12.985002]]}},{"type":"Feature","properties":{"osmId":430799559,"highway":"tertiary","name":"JagannathaPuram 3rd Main Road","width":"3","interior":true},"geometry":{"type":"LineString","coordinates":[[80.220623,12.984393],[80.2210238,12.9843099],[80.2212303,12.9842751],[80.2214716,12.9842523],[80.2217103,12.9842496],[80.2218285,12.9842286],[80.2221196,12.9841279],[80.2221898,12.9841259],[80.2226639,12.9840511]]}},{"type":"Feature","properties":{"osmId":430799560,"check_date:surface":"2026-02-24","highway":"residential","name":"RajaLaxmi Nagar 10 Street","surface":"paved","interior":true},"geometry":{"type":"LineString","coordinates":[[80.2185684,12.9850183],[80.2185564,12.9853888],[80.2185585,12.9857586]]}},{"type":"Feature","properties":{"osmId":430799561,"highway":"residential","name":"RajaLaxmi Nagar 1st main Road","interior":true},"geometry":{"type":"LineString","coordinates":[[80.2207357,12.9857678],[80.2204377,12.9858568],[80.2198959,12.986027],[80.21945,12.9861174],[80.2191447,12.9861922],[80.2189748,12.9862318],[80.218147,12.9864574]]}},{"type":"Feature","properties":{"osmId":430799562,"highway":"residential","lane_markings":"no","lanes":"1","name":"Rajalakshmi Nagar 7th Cross Street","parking:both":"no","surface":"asphalt","interior":true},"geometry":{"type":"LineString","coordinates":[[80.2194255,12.9856167],[80.2185585,12.9857586],[80.2180065,12.9858545]]}},{"type":"Feature","properties":{"osmId":430799564,"highway":"residential","interior":true},"geometry":{"type":"LineString","coordinates":[[80.2186392,12.9832611],[80.2186026,12.9834074],[80.21856,12.9836002],[80.2185291,12.9838869]]}},{"type":"Feature","properties":{"osmId":435640554,"highway":"residential","interior":true},"geometry":{"type":"LineString","coordinates":[[80.2199103,12.9817464],[80.2199336,12.9822548]]}},{"type":"Feature","properties":{"osmId":438737014,"highway":"residential","interior":true},"geometry":{"type":"LineString","coordinates":[[80.2192208,12.9883431],[80.219062,12.9882887],[80.2189118,12.9882809],[80.2184679,12.9883119]]}},{"type":"Feature","properties":{"osmId":447987614,"bicycle":"yes","comment":"Other line is not ready so this strech is not oneway for now","cycleway":"lane","foot":"yes","highway":"primary","lanes":"2","maxspeed":"50","motorroad":"no","name":"Taramani Link Road","name:ta":"\u0ba4\u0bb0\u0bae\u0ba3\u0bbf \u0b9a\u0bbe\u0bb2\u0bc8","old_ref":"MDR752","oneway":"yes","ref":"SH48B","surface":"asphalt","interior":false},"geometry":{"type":"LineString","coordinates":[[80.2220667,12.9765503],[80.2227628,12.9769934]]}},{"type":"Feature","properties":{"osmId":566849738,"highway":"primary","motorroad":"no","name":"Sardar Patel Road","name:etymology:wikidata":"Q9455","oneway":"yes","surface":"asphalt","interior":false},"geometry":{"type":"LineString","coordinates":[[80.2231983,13.0114299],[80.2230235,13.0114955],[80.2228008,13.0115791],[80.222419,13.0117224],[80.2223309,13.011753],[80.2219855,13.011873]]}},{"type":"Feature","properties":{"osmId":576410437,"highway":"primary","motorroad":"no","name":"Anna Salai (Mount Road)","name:etymology:wikidata":"Q138765","official_name":"Grand Southern Trunk Road","oneway":"yes","ref":"SHU88","ref:old":"NH45","interior":false},"geometry":{"type":"LineString","coordinates":[[80.2212602,13.012364],[80.2213889,13.0123919],[80.2214953,13.0124371]]}},{"type":"Feature","properties":{"osmId":576410438,"alt_name":"Mount road","highway":"primary","lanes":"1","maxspeed":"50","motorroad":"no","name":"Anna Salai (Mount Road)","name:etymology:wikidata":"Q138765","official_name":"Grand Southern Trunk Road","oneway":"yes","ref":"SHU88","ref:old":"NH45","surface":"asphalt","interior":false},"geometry":{"type":"LineString","coordinates":[[80.2214953,13.0124371],[80.2217277,13.0126041],[80.2219496,13.0127842],[80.2220298,13.0128493],[80.2221962,13.0129843],[80.222307,13.0130742],[80.2226458,13.0133321],[80.2229062,13.0135482],[80.2229235,13.0135625],[80.2230163,13.0136395],[80.2232033,13.013789],[80.2232641,13.0138376],[80.2232656,13.0139131]]}},{"type":"Feature","properties":{"osmId":667073822,"highway":"primary_link","surface":"asphalt","interior":false},"geometry":{"type":"LineString","coordinates":[[80.2066346,12.9761665],[80.2067157,12.976276]]}},{"type":"Feature","properties":{"osmId":687502637,"highway":"secondary_link","surface":"asphalt","interior":false},"geometry":{"type":"LineString","coordinates":[[80.221904,13.0091239],[80.2220148,13.0090503]]}},{"type":"Feature","properties":{"osmId":687590582,"highway":"residential","interior":true},"geometry":{"type":"LineString","coordinates":[[80.2195037,12.9805721],[80.219534,12.9800427],[80.2195434,12.9798414]]}},{"type":"Feature","properties":{"osmId":693132614,"highway":"secondary_link","surface":"asphalt","interior":false},"geometry":{"type":"LineString","coordinates":[[80.2185305,13.0015861],[80.2185906,13.0015381]]}},{"type":"Feature","properties":{"osmId":721922453,"alt_name":"Bypass Road","cycleway":"lane","highway":"primary","lanes":"2","maxspeed":"50","name":"Velachery Bypass Road","name:ta":"\u0bb5\u0bc7\u0bb3\u0b9a\u0bcd\u0b9a\u0bc7\u0bb0\u0bbf \u0baa\u0bc1\u0bb1\u0bb5\u0bb4\u0bbf\u0b9a\u0bcd \u0b9a\u0bbe\u0bb2\u0bc8","oneway":"yes","ref":"SH48C","surface":"asphalt","interior":false},"geometry":{"type":"LineString","coordinates":[[80.2183244,12.987429],[80.2182983,12.9872854]]}},{"type":"Feature","properties":{"osmId":721922454,"alt_name":"Bypass Road","highway":"primary","lanes":"2","maxspeed":"50","name":"Velachery Bypass Road","name:ta":"\u0bb5\u0bc7\u0bb3\u0b9a\u0bcd\u0b9a\u0bc7\u0bb0\u0bbf \u0baa\u0bc1\u0bb1\u0bb5\u0bb4\u0bbf\u0b9a\u0bcd \u0b9a\u0bbe\u0bb2\u0bc8","oneway":"yes","ref":"SH48C","surface":"asphalt","interior":false},"geometry":{"type":"LineString","coordinates":[[80.2182983,12.9872854],[80.218147,12.9864574],[80.2180065,12.9858545],[80.2179596,12.9855999],[80.2179249,12.984981],[80.217938,12.9842224],[80.2179426,12.9833477],[80.217945,12.9825835],[80.217943,12.9823974],[80.2179644,12.9821535],[80.2180099,12.9816967],[80.218045,12.9814726],[80.2181539,12.9810652],[80.2184738,12.9801601],[80.2185082,12.9800687],[80.2186079,12.979837],[80.2188571,12.9792233],[80.2188657,12.9792023],[80.2188732,12.9791846],[80.2189747,12.9789466],[80.2191223,12.9786006],[80.2191661,12.9784912]]}},{"type":"Feature","properties":{"osmId":761215822,"highway":"secondary","name":"Velachery Main Road","name:etymology:wikidata":"Q7918771","old_ref":"SH48","oneway":"yes","surface":"asphalt","interior":false},"geometry":{"type":"LineString","coordinates":[[80.2196467,12.9914776],[80.2197541,12.9913408],[80.2200242,12.9909955]]}},{"type":"Feature","properties":{"osmId":761215824,"highway":"primary","name":"Velachery Bypass Road","oneway":"yes","ref":"SH48C","interior":false},"geometry":{"type":"LineString","coordinates":[[80.2196467,12.9914776],[80.2195754,12.9914347]]}},{"type":"Feature","properties":{"osmId":838496930,"highway":"primary","lanes":"2","lit":"yes","maxspeed":"40","name":"Inner Ring Road (Southern Sector)","name:ta":"\u0b89\u0bb3\u0bcd\u0bb5\u0b9f\u0bcd\u0b9f\u0b9a\u0bcd \u0b9a\u0bbe\u0bb2\u0bc8","oneway":"yes","ref":"SH2A","surface":"asphalt","interior":false},"geometry":{"type":"LineString","coordinates":[[80.2100797,12.9737895],[80.2102417,12.9737176],[80.2104983,12.973526],[80.2108344,12.9732436],[80.2158707,12.9690139],[80.2164435,12.9686377],[80.2165419,12.9685832],[80.2169645,12.9683493],[80.2173776,12.9681524]]}},{"type":"Feature","properties":{"osmId":838496931,"highway":"primary","maxspeed":"40","motorroad":"no","name":"Inner Ring Road (Southern Sector)","name:ta":"\u0b89\u0bb3\u0bcd\u0bb5\u0b9f\u0bcd\u0b9f\u0b9a\u0bcd \u0b9a\u0bbe\u0bb2\u0bc8","oneway":"yes","ref":"SH2A","interior":false},"geometry":{"type":"LineString","coordinates":[[80.2099693,12.973591],[80.2098967,12.9736228]]}},{"type":"Feature","properties":{"osmId":939228066,"highway":"primary","maxspeed":"40","name":"Inner Ring Road (Southern Sector)","name:ta":"\u0b89\u0bb3\u0bcd\u0bb5\u0b9f\u0bcd\u0b9f\u0b9a\u0bcd \u0b9a\u0bbe\u0bb2\u0bc8","oneway":"yes","ref":"SH2A","interior":false},"geometry":{"type":"LineString","coordinates":[[80.2100797,12.9737895],[80.2101176,12.9737176]]}},{"type":"Feature","properties":{"osmId":939228067,"highway":"primary","lanes":"2","lit":"yes","maxspeed":"40","motorroad":"no","name":"Inner Ring Road (Southern Sector)","name:ta":"\u0b89\u0bb3\u0bcd\u0bb5\u0b9f\u0bcd\u0b9f\u0b9a\u0bcd \u0b9a\u0bbe\u0bb2\u0bc8","oneway":"yes","ref":"SH2A","surface":"asphalt","interior":false},"geometry":{"type":"LineString","coordinates":[[80.2099693,12.973591],[80.210776,12.9729268],[80.2116627,12.9721555],[80.2123049,12.971599],[80.2136506,12.9704569],[80.2139001,12.9702347],[80.214871,12.9694009],[80.2155516,12.9688076],[80.2157595,12.9686301],[80.2157798,12.9686144],[80.2161024,12.9683655],[80.2163972,12.9681802],[80.2165077,12.9681023],[80.2166319,12.9680169],[80.2167747,12.9678953],[80.2169066,12.9677305],[80.2170448,12.9676045],[80.21705163490566,12.9676]]}},{"type":"Feature","properties":{"osmId":1015883650,"highway":"primary_link","oneway":"yes","interior":false},"geometry":{"type":"LineString","coordinates":[[80.2193951,12.991406],[80.2194187,12.9915539],[80.2194071,12.9916774]]}},{"type":"Feature","properties":{"osmId":1015894846,"highway":"secondary","name":"Velachery Main Road","name:etymology:wikidata":"Q7918771","name:ta":"\u0bb5\u0bc7\u0bb3\u0b9a\u0bcd\u0b9a\u0bc7\u0bb0\u0bbf \u0bae\u0bc1\u0ba4\u0ba9\u0bcd\u0bae\u0bc8\u0b9a\u0bcd \u0b9a\u0bbe\u0bb2\u0bc8","oneway":"no","surface":"asphalt","interior":false},"geometry":{"type":"LineString","coordinates":[[80.2214036,12.9759943],[80.2213325,12.9760873]]}},{"type":"Feature","properties":{"osmId":1015894847,"bicycle":"yes","cycleway":"lane","foot":"yes","highway":"primary","lanes":"2","maxspeed":"50","motorroad":"no","name":"Taramani Link Road","name:ta":"\u0ba4\u0bb0\u0bae\u0ba3\u0bbf \u0b9a\u0bbe\u0bb2\u0bc8","old_ref":"MDR752","oneway":"yes","ref":"SH48B","surface":"asphalt","interior":false},"geometry":{"type":"LineString","coordinates":[[80.2213325,12.9760873],[80.2215821,12.9762478],[80.2219275,12.9764634],[80.2220667,12.9765503]]}},{"type":"Feature","properties":{"osmId":1015894850,"highway":"secondary","lanes":"2","name":"Velachery Main Road","name:etymology:wikidata":"Q7918771","name:ta":"\u0bb5\u0bc7\u0bb3\u0b9a\u0bcd\u0b9a\u0bc7\u0bb0\u0bbf \u0bae\u0bc1\u0ba4\u0ba9\u0bcd\u0bae\u0bc8\u0b9a\u0bcd \u0b9a\u0bbe\u0bb2\u0bc8","old_ref":"SH48","oneway":"yes","surface":"asphalt","interior":false},"geometry":{"type":"LineString","coordinates":[[80.2165526,12.9971743],[80.2165718,12.9967043],[80.2166104,12.9963977],[80.2166746,12.9960839],[80.2167353,12.9958058],[80.2169,12.9953837],[80.2169662,12.9952475],[80.2172513,12.9948205],[80.2195415,12.9916407]]}},{"type":"Feature","properties":{"osmId":1015894851,"highway":"primary","motorroad":"no","name":"Anna Salai (Mount Road)","name:etymology:wikidata":"Q138765","official_name":"Grand Southern Trunk Road","oneway":"yes","ref":"SHU88","ref:old":"NH45","interior":false},"geometry":{"type":"LineString","coordinates":[[80.2168423,13.0106908],[80.2163283,13.0104614]]}},{"type":"Feature","properties":{"osmId":1015894852,"highway":"primary","lane_markings":"yes","lanes":"3","name":"Sardar Patel Road","name:etymology:wikidata":"Q9455","name:ta":"\u0b9a\u0bb0\u0bcd\u0ba4\u0bbe\u0bb0\u0bcd \u0baa\u0b9f\u0bc7\u0bb2\u0bcd \u0b9a\u0bbe\u0bb2\u0bc8","oneway":"yes","surface":"asphalt","interior":false},"geometry":{"type":"LineString","coordinates":[[80.225,13.010691950869724],[80.2249697,13.0107055],[80.2248574,13.0107557],[80.2247259,13.0108094],[80.2244598,13.0109179],[80.2241035,13.0110633],[80.2240151,13.0110994],[80.2232552,13.0114027]]}},{"type":"Feature","properties":{"osmId":1020569417,"highway":"secondary","lanes":"2","name":"Velachery Main Road","name:etymology:wikidata":"Q7918771","name:ta":"\u0bb5\u0bc7\u0bb3\u0b9a\u0bcd\u0b9a\u0bc7\u0bb0\u0bbf \u0bae\u0bc1\u0ba4\u0ba9\u0bcd\u0bae\u0bc8\u0b9a\u0bcd \u0b9a\u0bbe\u0bb2\u0bc8","old_ref":"SH48","oneway":"no","surface":"asphalt","interior":false},"geometry":{"type":"LineString","coordinates":[[80.2213325,12.9760873],[80.2212565,12.9761756],[80.2212424,12.9762165],[80.2212166,12.9763056],[80.2212122,12.9764607],[80.2212169,12.9767901],[80.2212104,12.9770381],[80.221206,12.9775013]]}},{"type":"Feature","properties":{"osmId":1021079967,"highway":"primary","maxspeed":"40","motorroad":"no","name":"Inner Ring Road (Southern Sector)","name:ta":"\u0b89\u0bb3\u0bcd\u0bb5\u0b9f\u0bcd\u0b9f\u0b9a\u0bcd \u0b9a\u0bbe\u0bb2\u0bc8","oneway":"yes","ref":"SH2A","surface":"asphalt","interior":false},"geometry":{"type":"LineString","coordinates":[[80.2098967,12.9736228],[80.2084109,12.9747899],[80.2077481,12.9753125],[80.2066346,12.9761665]]}},{"type":"Feature","properties":{"osmId":1030689327,"highway":"secondary","lanes":"2","maxspeed":"30","maxspeed:type":"sign","name":"Velachery Main Road","name:etymology:wikidata":"Q7918771","name:ta":"\u0bb5\u0bc7\u0bb3\u0b9a\u0bcd\u0b9a\u0bc7\u0bb0\u0bbf \u0bae\u0bc1\u0ba4\u0ba9\u0bcd\u0bae\u0bc8\u0b9a\u0bcd \u0b9a\u0bbe\u0bb2\u0bc8","old_ref":"SH48","oneway":"yes","surface":"asphalt","width":"8 m","interior":false},"geometry":{"type":"LineString","coordinates":[[80.2194729,12.9915806],[80.2194071,12.9916774]]}},{"type":"Feature","properties":{"osmId":1030689328,"alt_name":"Bypass Road","cycleway":"lane","highway":"primary","lanes":"2","maxspeed":"50","name":"Velachery Bypass Road","name:ta":"\u0bb5\u0bc7\u0bb3\u0b9a\u0bcd\u0b9a\u0bc7\u0bb0\u0bbf \u0baa\u0bc1\u0bb1\u0bb5\u0bb4\u0bbf\u0b9a\u0bcd\u0b9a\u0bbe\u0bb2\u0bc8","oneway":"yes","ref":"SH48C","surface":"asphalt","interior":false},"geometry":{"type":"LineString","coordinates":[[80.2193951,12.991406],[80.2195142,12.9915156]]}},{"type":"Feature","properties":{"osmId":1039232677,"highway":"primary","motorroad":"no","name":"Anna Salai (Mount Road)","name:etymology:wikidata":"Q138765","official_name":"Grand Southern Trunk Road","oneway":"yes","ref":"SHU88","ref:old":"NH45","interior":false},"geometry":{"type":"LineString","coordinates":[[80.2159111,13.0103818],[80.2170576,13.0109201]]}},{"type":"Feature","properties":{"osmId":1040004963,"highway":"primary","motorroad":"no","name":"Anna Salai (Mount Road)","name:etymology:wikidata":"Q138765","oneway":"yes","ref":"NH32","ref:old":"NH45","surface":"asphalt","interior":false},"geometry":{"type":"LineString","coordinates":[[80.2215754,13.0120189],[80.2214799,13.0120576],[80.2213069,13.012113],[80.2210646,13.0121486]]}},{"type":"Feature","properties":{"osmId":1078273883,"highway":"primary","lanes":"2","maxspeed":"50","motorroad":"no","name":"Anna Salai (Mount Road)","name:etymology:wikidata":"Q138765","official_name":"Grand Southern Trunk Road","oneway":"yes","ref":"SHU88","ref:old":"NH45","surface":"asphalt","interior":false},"geometry":{"type":"LineString","coordinates":[[80.2232656,13.0139131],[80.2232825,13.0139268],[80.22337273374407,13.014]]}},{"type":"Feature","properties":{"osmId":1080320421,"highway":"primary","maxspeed":"40","motorroad":"no","name":"Inner Ring Road (Southern Sector)","name:ta":"\u0b89\u0bb3\u0bcd\u0bb5\u0b9f\u0bcd\u0b9f\u0b9a\u0bcd \u0b9a\u0bbe\u0bb2\u0bc8","oneway":"yes","ref":"SH2A","surface":"asphalt","interior":false},"geometry":{"type":"LineString","coordinates":[[80.2064475,12.9764703],[80.2067157,12.976276],[80.2073889,12.9758459],[80.2074557,12.9758032],[80.2078889,12.9755264],[80.2079201,12.9755031],[80.2088777,12.9747791],[80.2100797,12.9737895]]}},{"type":"Feature","properties":{"osmId":1080320422,"highway":"primary","maxspeed":"40","motorroad":"no","name":"Inner Ring Road (Southern Sector)","name:ta":"\u0b89\u0bb3\u0bcd\u0bb5\u0b9f\u0bcd\u0b9f\u0b9a\u0bcd \u0b9a\u0bbe\u0bb2\u0bc8","oneway":"yes","ref":"SH2A","surface":"asphalt","tunnel":"building_passage","interior":false},"geometry":{"type":"LineString","coordinates":[[80.2043852,12.9780035],[80.2050769,12.9774891],[80.2064475,12.9764703]]}},{"type":"Feature","properties":{"osmId":1080320423,"highway":"primary","maxspeed":"40","motorroad":"no","name":"Inner Ring Road (Southern Sector)","name:ta":"\u0b89\u0bb3\u0bcd\u0bb5\u0b9f\u0bcd\u0b9f\u0b9a\u0bcd \u0b9a\u0bbe\u0bb2\u0bc8","oneway":"yes","ref":"SH2A","surface":"asphalt","tunnel":"building_passage","interior":false},"geometry":{"type":"LineString","coordinates":[[80.2063757,12.9763855],[80.2050099,12.9773846],[80.2043167,12.9778938]]}},{"type":"Feature","properties":{"osmId":1080320424,"highway":"primary","maxspeed":"40","motorroad":"no","name":"Inner Ring Road (Southern Sector)","name:ta":"\u0b89\u0bb3\u0bcd\u0bb5\u0b9f\u0bcd\u0b9f\u0b9a\u0bcd \u0b9a\u0bbe\u0bb2\u0bc8","oneway":"yes","ref":"SH2A","surface":"asphalt","interior":false},"geometry":{"type":"LineString","coordinates":[[80.2066346,12.9761665],[80.2063757,12.9763855]]}},{"type":"Feature","properties":{"osmId":1082485658,"alt_name":"Mount Road","highway":"primary","lit":"yes","motorroad":"no","name":"Anna Salai (Mount Road)","name:etymology:wikidata":"Q138765","official_name":"Grand Southern Trunk Road","oneway":"yes","ref":"SHU88","interior":false},"geometry":{"type":"LineString","coordinates":[[80.2097415,13.008165],[80.2093905,13.0080754]]}},{"type":"Feature","properties":{"osmId":1082485659,"highway":"primary","motorroad":"no","name":"Sardar Patel Road","name:etymology:wikidata":"Q9455","oneway":"yes","interior":false},"geometry":{"type":"LineString","coordinates":[[80.2219855,13.011873],[80.2218358,13.0119423],[80.2217983,13.0119596],[80.2217473,13.0119762],[80.2215754,13.0120189]]}},{"type":"Feature","properties":{"osmId":1082485669,"highway":"primary","motorroad":"no","name":"Anna Salai (Mount Road)","name:etymology:wikidata":"Q138765","official_name":"Grand Southern Trunk Road","oneway":"yes","ref":"SHU88","interior":false},"geometry":{"type":"LineString","coordinates":[[80.2103263,13.0085663],[80.2112087,13.0088683],[80.2116047,13.0089924],[80.2116525,13.0090089]]}},{"type":"Feature","properties":{"osmId":1082485670,"highway":"primary","lit":"yes","motorroad":"no","name":"Anna Salai (Mount Road)","name:etymology:wikidata":"Q138765","official_name":"Grand Southern Trunk Road","oneway":"yes","ref":"SHU88","interior":false},"geometry":{"type":"LineString","coordinates":[[80.2065299,13.0078414],[80.2070512,13.0079177],[80.2072355,13.0079447],[80.2086623,13.0081478],[80.2093351,13.0082622],[80.2099739,13.008448],[80.2103263,13.0085663]]}},{"type":"Feature","properties":{"osmId":1105956373,"highway":"primary","name":"100 Feet Road","name:ta":"\u0bb5\u0bc7\u0bb3\u0b9a\u0bcd\u0b9a\u0bc7\u0bb0\u0bbf \u0baa\u0bc1\u0bb1\u0bb5\u0bb4\u0bbf\u0b9a\u0bcd \u0b9a\u0bbe\u0bb2\u0bc8","oneway":"yes","interior":false},"geometry":{"type":"LineString","coordinates":[[80.2193279,12.9781365],[80.2194198,12.9780888],[80.2194824,12.9779563],[80.2195108,12.9778859],[80.2195174,12.9778732],[80.219544,12.9778115],[80.2197972,12.9771638],[80.2199529,12.9767862],[80.2200871,12.9764609],[80.2201404,12.9763325],[80.2201547,12.9762902],[80.220161,12.9762715],[80.2202098,12.9761446],[80.2202782,12.9760035],[80.2203358,12.9758819],[80.2203908,12.9757761],[80.2204375,12.9757042],[80.2204643,12.975663],[80.2205292,12.9755867],[80.2205653,12.9755564],[80.2205889,12.9755367],[80.2206372,12.9755129],[80.2207189,12.9754853]]}},{"type":"Feature","properties":{"osmId":1105956375,"alt_name":"Bypass Road","cycleway":"lane","highway":"primary","lanes":"2","maxspeed":"50","name":"100 Feet Road","name:ta":"\u0bb5\u0bc7\u0bb3\u0b9a\u0bcd\u0b9a\u0bc7\u0bb0\u0bbf \u0baa\u0bc1\u0bb1\u0bb5\u0bb4\u0bbf\u0b9a\u0bcd\u0b9a\u0bbe\u0bb2\u0bc8","oneway":"yes","ref":"SH48C","surface":"asphalt","interior":false},"geometry":{"type":"LineString","coordinates":[[80.2204894,12.97508],[80.2204915,12.9751107],[80.2204977,12.9751555],[80.2204976,12.9752006],[80.2204829,12.9752686],[80.2204507,12.975347],[80.2204051,12.9754306],[80.2203582,12.9755011],[80.2203367,12.975526],[80.2203066,12.97556],[80.2202861,12.9755849],[80.2202557,12.9756216],[80.2202426,12.9756375],[80.2201784,12.9757079],[80.2201133,12.9757798],[80.2200678,12.9758377],[80.2200294,12.9758988],[80.2199624,12.9760139],[80.2198996,12.9761508],[80.2198209,12.9763456],[80.2197633,12.976488],[80.2196751,12.976714],[80.2194814,12.9772203],[80.2191825,12.9779737],[80.2191448,12.9780536]]}},{"type":"Feature","properties":{"osmId":1105956378,"cycleway":"lane","highway":"primary","lanes":"2","lit":"yes","maxspeed":"50","name":"Taramani Road","name:ta":"\u0ba4\u0bb0\u0bae\u0ba3\u0bbf \u0b9a\u0bbe\u0bb2\u0bc8","official_name":"Marmalong Bridge - Irumbuliyur - Vandalur - Mudichur - Oragadam - Walajabad Road","oneway":"yes","ref":"SH48","surface":"asphalt","interior":false},"geometry":{"type":"LineString","coordinates":[[80.2214036,12.9759943],[80.221305,12.9759164],[80.2211908,12.9758127],[80.2211481,12.9757717],[80.2210581,12.9756855],[80.2209379,12.9755573],[80.2208671,12.9754685],[80.2208393,12.9754266],[80.2208026,12.9753551],[80.2207427,12.9752026],[80.2207147,12.9751314],[80.2206684,12.9750127],[80.2205958,12.974827],[80.2205119,12.9746256],[80.2204184,12.974401],[80.2204048,12.9743682],[80.2202265,12.9739336],[80.2199898,12.9733833],[80.2198761,12.9731033],[80.2196904,12.972646],[80.219574,12.9723727],[80.2195467,12.9723085],[80.219533,12.9722763],[80.2194993,12.9721972],[80.2194461,12.9720642],[80.2194122,12.9719844]]}},{"type":"Feature","properties":{"osmId":1105956379,"highway":"primary","lane_markings":"no","maxspeed":"40","motorroad":"no","name":"Velachery Main Road","name:etymology:wikidata":"Q7918771","name:ta":"\u0bb5\u0bc7\u0bb3\u0b9a\u0bcd\u0b9a\u0bc7\u0bb0\u0bbf \u0bae\u0bc1\u0ba4\u0ba9\u0bcd\u0bae\u0bc8\u0b9a\u0bcd \u0b9a\u0bbe\u0bb2\u0bc8","official_name":"Marmalong Bridge - Irumbuliyur - Vandalur - Mudichur - Oragadam - Walajabad Road","oneway":"yes","ref":"SH48","surface":"asphalt","width":"30 ft","interior":false},"geometry":{"type":"LineString","coordinates":[[80.2187689,12.9707573],[80.218843,12.9709191],[80.2190042,12.9713022],[80.2190447,12.9714014]]}},{"type":"Feature","properties":{"osmId":1105956380,"highway":"primary","lane_markings":"no","maxspeed":"40","motorroad":"no","name":"Velachery Main Road","name:etymology:wikidata":"Q7918771","name:ta":"\u0bb5\u0bc7\u0bb3\u0b9a\u0bcd\u0b9a\u0bc7\u0bb0\u0bbf \u0bae\u0bc1\u0ba4\u0ba9\u0bcd\u0bae\u0bc8\u0b9a\u0bcd \u0b9a\u0bbe\u0bb2\u0bc8","official_name":"Marmalong Bridge - Irumbuliyur - Vandalur - Mudichur - Oragadam - Walajabad Road","oneway":"yes","ref":"SH48","surface":"asphalt","width":"30 ft","interior":false},"geometry":{"type":"LineString","coordinates":[[80.2190447,12.9714014],[80.219175,12.9717386],[80.2192008,12.9718053],[80.2192164,12.971874]]}},{"type":"Feature","properties":{"osmId":1105956381,"highway":"primary","name":"100 Feet Road","name:ta":"\u0bb5\u0bc7\u0bb3\u0b9a\u0bcd\u0b9a\u0bc7\u0bb0\u0bbf \u0baa\u0bc1\u0bb1\u0bb5\u0bb4\u0bbf\u0b9a\u0bcd \u0b9a\u0bbe\u0bb2\u0bc8","oneway":"yes","interior":false},"geometry":{"type":"LineString","coordinates":[[80.2191661,12.9784912],[80.2192141,12.9784301],[80.2192714,12.9782778],[80.2193279,12.9781365]]}},{"type":"Feature","properties":{"osmId":1105956383,"highway":"primary","lane_markings":"no","lit":"yes","maxspeed":"40","motorroad":"no","name":"Velachery Main Road","name:etymology:wikidata":"Q7918771","name:ta":"\u0bb5\u0bc7\u0bb3\u0b9a\u0bcd\u0b9a\u0bc7\u0bb0\u0bbf \u0bae\u0bc1\u0ba4\u0ba9\u0bcd\u0bae\u0bc8\u0b9a\u0bcd \u0b9a\u0bbe\u0bb2\u0bc8","official_name":"Marmalong Bridge - Irumbuliyur - Vandalur - Mudichur - Oragadam - Walajabad Road","oneway":"yes","ref":"SH48","surface":"asphalt","width":"30 ft","interior":false},"geometry":{"type":"LineString","coordinates":[[80.219131,12.9712759],[80.2189424,12.9707377],[80.2188898,12.9705875]]}},{"type":"Feature","properties":{"osmId":1105956833,"alt_name":"Bypass Road","cycleway":"lane","highway":"primary","lanes":"2","maxspeed":"50","name":"Velachery Bypass Road","name:ta":"\u0bb5\u0bc7\u0bb3\u0b9a\u0bcd\u0b9a\u0bc7\u0bb0\u0bbf \u0baa\u0bc1\u0bb1\u0bb5\u0bb4\u0bbf\u0b9a\u0bcd\u0b9a\u0bbe\u0bb2\u0bc8","oneway":"yes","ref":"SH48C","surface":"asphalt","interior":false},"geometry":{"type":"LineString","coordinates":[[80.2191448,12.9780536],[80.2191203,12.9781166],[80.219098,12.9781639],[80.2188756,12.9787329],[80.2188666,12.9787559],[80.2188374,12.9788292],[80.2188116,12.978894],[80.218732,12.9791283],[80.2186351,12.9794109],[80.2186029,12.9795109],[80.2185724,12.9795876],[80.2185054,12.9797564],[80.2184003,12.9800212]]}},{"type":"Feature","properties":{"osmId":1119574678,"highway":"primary","maxspeed":"40","motorroad":"no","name":"Inner Ring Road (Southern Sector)","name:ta":"\u0b89\u0bb3\u0bcd\u0bb5\u0b9f\u0bcd\u0b9f\u0b9a\u0bcd \u0b9a\u0bbe\u0bb2\u0bc8","oneway":"yes","ref":"SH2A","surface":"asphalt","interior":false},"geometry":{"type":"LineString","coordinates":[[80.2043167,12.9778938],[80.2041456,12.9780086]]}},{"type":"Feature","properties":{"osmId":1124365933,"highway":"primary_link","interior":false},"geometry":{"type":"LineString","coordinates":[[80.2203135,12.9746827],[80.2205119,12.9746256]]}},{"type":"Feature","properties":{"osmId":1189333177,"highway":"residential","interior":true},"geometry":{"type":"LineString","coordinates":[[80.2192714,12.9782778],[80.2196763,12.9783145],[80.219687,12.9784288]]}},{"type":"Feature","properties":{"osmId":1190128770,"highway":"living_street","interior":true},"geometry":{"type":"LineString","coordinates":[[80.2192026,12.9870319],[80.2195527,12.9878817]]}},{"type":"Feature","properties":{"osmId":1190129954,"highway":"residential","interior":true},"geometry":{"type":"LineString","coordinates":[[80.2201434,12.9881703],[80.2204784,12.9889225]]}},{"type":"Feature","properties":{"osmId":1190132080,"highway":"residential","interior":true},"geometry":{"type":"LineString","coordinates":[[80.2219036,12.987436],[80.2218339,12.9872208],[80.2218102,12.9872147],[80.221791,12.987216],[80.221527,12.9872977]]}},{"type":"Feature","properties":{"osmId":1206879466,"highway":"primary_link","interior":false},"geometry":{"type":"LineString","coordinates":[[80.2178218,12.9833561],[80.2179426,12.9833477]]}},{"type":"Feature","properties":{"osmId":1207949291,"highway":"residential","interior":true},"geometry":{"type":"LineString","coordinates":[[80.2192542,12.9796446],[80.2191856,12.9799592]]}},{"type":"Feature","properties":{"osmId":1207949292,"highway":"residential","interior":true},"geometry":{"type":"LineString","coordinates":[[80.2191856,12.9799592],[80.2191164,12.9802212]]}},{"type":"Feature","properties":{"osmId":1242776547,"highway":"residential","interior":true},"geometry":{"type":"LineString","coordinates":[[80.2186143,12.9824291],[80.2184654,12.9824323]]}},{"type":"Feature","properties":{"osmId":1248024531,"highway":"primary","lanes":"2","lit":"yes","maxspeed":"40","motorroad":"no","name":"Inner Ring Road (Southern Sector)","name:ta":"\u0b89\u0bb3\u0bcd\u0bb5\u0b9f\u0bcd\u0b9f\u0b9a\u0bcd \u0b9a\u0bbe\u0bb2\u0bc8","oneway":"yes","ref":"SH2A","surface":"asphalt","interior":false},"geometry":{"type":"LineString","coordinates":[[80.21694959079119,12.9676],[80.2168825,12.9676598],[80.2167472,12.9678146],[80.2166431,12.9679148],[80.2160449,12.9683249],[80.2157378,12.9685541]]}},{"type":"Feature","properties":{"osmId":1267273629,"highway":"residential","interior":true},"geometry":{"type":"LineString","coordinates":[[80.2191447,12.9861922],[80.2191947,12.9863847]]}},{"type":"Feature","properties":{"osmId":1267273630,"highway":"residential","interior":true},"geometry":{"type":"LineString","coordinates":[[80.2189748,12.9862318],[80.2190284,12.9864108]]}},{"type":"Feature","properties":{"osmId":1267273631,"highway":"residential","interior":true},"geometry":{"type":"LineString","coordinates":[[80.2218139,12.9863233],[80.2216892,12.9863605]]}},{"type":"Feature","properties":{"osmId":1267273632,"highway":"residential","interior":true},"geometry":{"type":"LineString","coordinates":[[80.2222179,12.9863942],[80.2221063,12.9859156]]}},{"type":"Feature","properties":{"osmId":1267273633,"highway":"residential","interior":true},"geometry":{"type":"LineString","coordinates":[[80.2218676,12.9865141],[80.2218139,12.9863233],[80.221771,12.9861717]]}},{"type":"Feature","properties":{"osmId":1267273635,"highway":"living_street","interior":true},"geometry":{"type":"LineString","coordinates":[[80.2205573,12.9873596],[80.2203669,12.986991]]}},{"type":"Feature","properties":{"osmId":1267273636,"highway":"living_street","interior":true},"geometry":{"type":"LineString","coordinates":[[80.2205954,12.9879964],[80.2207008,12.9882207]]}},{"type":"Feature","properties":{"osmId":1267273637,"highway":"residential","interior":true},"geometry":{"type":"LineString","coordinates":[[80.2221745,12.9888541],[80.2220245,12.9886441],[80.2219172,12.9884952],[80.2219118,12.9884743],[80.2219132,12.9884547],[80.2219232,12.9884396],[80.2220882,12.9883351],[80.2221076,12.9883325],[80.2221304,12.9883364],[80.2221519,12.9883482],[80.222389,12.9886732]]}},{"type":"Feature","properties":{"osmId":1267273638,"highway":"residential","interior":true},"geometry":{"type":"LineString","coordinates":[[80.219966,12.9867024],[80.2201717,12.9871851],[80.2201754,12.98719],[80.2201818,12.9871946],[80.2201868,12.9871959],[80.2201965,12.9871946],[80.2202039,12.9871936],[80.2202126,12.9871952],[80.22022,12.9871988],[80.2202271,12.9872054],[80.2202334,12.9872175],[80.2203514,12.9874826]]}},{"type":"Feature","properties":{"osmId":1267273639,"highway":"living_street","interior":true},"geometry":{"type":"LineString","coordinates":[[80.2211273,12.9864252],[80.220843,12.9864984]]}},{"type":"Feature","properties":{"osmId":1267302780,"highway":"secondary","lanes":"2","maxspeed":"10","maxspeed:type":"sign","name":"Velachery Main Road","name:etymology:wikidata":"Q7918771","name:ta":"\u0bb5\u0bc7\u0bb3\u0b9a\u0bcd\u0b9a\u0bc7\u0bb0\u0bbf \u0bae\u0bc1\u0ba4\u0ba9\u0bcd\u0bae\u0bc8\u0b9a\u0bcd \u0b9a\u0bbe\u0bb2\u0bc8","old_ref":"SH48","oneway":"yes","surface":"paved","interior":false},"geometry":{"type":"LineString","coordinates":[[80.2195803,12.9915827],[80.2196467,12.9914776]]}},{"type":"Feature","properties":{"osmId":1267302781,"alt_name":"Bypass Road","cycleway":"lane","highway":"primary","lanes":"2","maxspeed":"50","name":"Velachery Bypass Road","name:ta":"\u0bb5\u0bc7\u0bb3\u0b9a\u0bcd\u0b9a\u0bc7\u0bb0\u0bbf \u0baa\u0bc1\u0bb1\u0bb5\u0bb4\u0bbf\u0b9a\u0bcd\u0b9a\u0bbe\u0bb2\u0bc8","oneway":"yes","ref":"SH48C","surface":"asphalt","interior":false},"geometry":{"type":"LineString","coordinates":[[80.2195142,12.9915156],[80.2195803,12.9915827]]}},{"type":"Feature","properties":{"osmId":1267302782,"highway":"secondary","name":"Velachery Main Road","name:etymology:wikidata":"Q7918771","name:ta":"\u0bb5\u0bc7\u0bb3\u0b9a\u0bcd\u0b9a\u0bc7\u0bb0\u0bbf \u0bae\u0bc1\u0ba4\u0ba9\u0bcd\u0bae\u0bc8\u0b9a\u0bcd \u0b9a\u0bbe\u0bb2\u0bc8","old_ref":"SH48","oneway":"yes","surface":"asphalt","interior":false},"geometry":{"type":"LineString","coordinates":[[80.2195754,12.9914347],[80.2195142,12.9915156]]}},{"type":"Feature","properties":{"osmId":1270316624,"highway":"residential","interior":true},"geometry":{"type":"LineString","coordinates":[[80.2185792,12.9843056],[80.2185526,12.9846238]]}},{"type":"Feature","properties":{"osmId":1286834230,"bridge":"yes","highway":"primary","lanes":"2","layer":"1","lit":"yes","maxspeed":"40","name":"Inner Ring Road (Southern Sector)","name:ta":"\u0b89\u0bb3\u0bcd\u0bb5\u0b9f\u0bcd\u0b9f\u0b9a\u0bcd \u0b9a\u0bbe\u0bb2\u0bc8","oneway":"yes","ref":"SH2A","surface":"asphalt","interior":false},"geometry":{"type":"LineString","coordinates":[[80.2175009,12.9680334],[80.2173491,12.9680951]]}},{"type":"Feature","properties":{"osmId":1286834231,"highway":"primary","lanes":"2","lit":"yes","maxspeed":"40","name":"Inner Ring Road (Southern Sector)","name:ta":"\u0b89\u0bb3\u0bcd\u0bb5\u0b9f\u0bcd\u0b9f\u0b9a\u0bcd \u0b9a\u0bbe\u0bb2\u0bc8","oneway":"yes","ref":"SH2A","surface":"asphalt","interior":false},"geometry":{"type":"LineString","coordinates":[[80.2175688,12.9680097],[80.2175009,12.9680334]]}},{"type":"Feature","properties":{"osmId":1286834232,"highway":"primary","lanes":"2","lit":"yes","maxspeed":"40","name":"Inner Ring Road (Southern Sector)","name:ta":"\u0b89\u0bb3\u0bcd\u0bb5\u0b9f\u0bcd\u0b9f\u0b9a\u0bcd \u0b9a\u0bbe\u0bb2\u0bc8","oneway":"yes","ref":"SH2A","surface":"asphalt","interior":false},"geometry":{"type":"LineString","coordinates":[[80.2175156,12.9680929],[80.2175694,12.9680755],[80.2175892,12.9680691],[80.2176773,12.9680403],[80.2178483,12.9679983],[80.2178783,12.9680088],[80.21797,12.9681656],[80.2180382,12.9683298],[80.2180523,12.9683637],[80.2184737,12.9693786],[80.2186283,12.9697482],[80.2186821,12.969783]]}},{"type":"Feature","properties":{"osmId":1286834233,"bridge":"yes","highway":"primary","lanes":"2","layer":"1","lit":"yes","maxspeed":"40","name":"Inner Ring Road (Southern Sector)","name:ta":"\u0b89\u0bb3\u0bcd\u0bb5\u0b9f\u0bcd\u0b9f\u0b9a\u0bcd \u0b9a\u0bbe\u0bb2\u0bc8","oneway":"yes","ref":"SH2A","surface":"asphalt","interior":false},"geometry":{"type":"LineString","coordinates":[[80.2173776,12.9681524],[80.2175156,12.9680929]]}},{"type":"Feature","properties":{"osmId":1287290033,"highway":"secondary","lanes":"2","name":"Velachery Main Road","name:etymology:wikidata":"Q7918771","name:ta":"\u0bb5\u0bc7\u0bb3\u0b9a\u0bcd\u0b9a\u0bc7\u0bb0\u0bbf \u0bae\u0bc1\u0ba4\u0ba9\u0bcd\u0bae\u0bc8\u0b9a\u0bcd \u0b9a\u0bbe\u0bb2\u0bc8","old_ref":"SH48","oneway":"yes","surface":"asphalt","interior":false},"geometry":{"type":"LineString","coordinates":[[80.2200242,12.9909955],[80.2206945,12.990178],[80.2207226,12.9901027]]}},{"type":"Feature","properties":{"osmId":1287290035,"highway":"secondary","lanes":"2","name":"Velachery Main Road","name:etymology:wikidata":"Q7918771","name:ta":"\u0bb5\u0bc7\u0bb3\u0b9a\u0bcd\u0b9a\u0bc7\u0bb0\u0bbf \u0bae\u0bc1\u0ba4\u0ba9\u0bcd\u0bae\u0bc8\u0b9a\u0bcd \u0b9a\u0bbe\u0bb2\u0bc8","old_ref":"SH48","oneway":"yes","surface":"asphalt","interior":false},"geometry":{"type":"LineString","coordinates":[[80.2207226,12.9901027],[80.2206506,12.9901551],[80.2203598,12.9904916],[80.2201775,12.99071],[80.2200604,12.9908509]]}},{"type":"Feature","properties":{"osmId":1288649399,"bicycle":"yes","cycleway":"lane","foot":"yes","highway":"primary","lanes":"2","lit":"yes","maxspeed":"50","motorroad":"no","name":"Taramani Road","name:ta":"\u0ba4\u0bb0\u0bae\u0ba3\u0bbf \u0b9a\u0bbe\u0bb2\u0bc8","official_name":"Marmalong Bridge - Irumbuliyur - Vandalur - Mudichur - Oragadam - Walajabad Road","oneway":"yes","ref":"SH48","surface":"asphalt","interior":false},"geometry":{"type":"LineString","coordinates":[[80.2211155,12.975928],[80.2211689,12.9759744],[80.2212421,12.9760295],[80.2213325,12.9760873]]}},{"type":"Feature","properties":{"osmId":1292375972,"highway":"primary","name":"Sardar Patel Road","name:etymology:wikidata":"Q9455","name:ta":"\u0b9a\u0bb0\u0bcd\u0ba4\u0bbe\u0bb0\u0bcd \u0baa\u0b9f\u0bc7\u0bb2\u0bcd \u0b9a\u0bbe\u0bb2\u0bc8","oneway":"yes","surface":"asphalt","interior":false},"geometry":{"type":"LineString","coordinates":[[80.2232552,13.0114027],[80.2231983,13.0114299]]}},{"type":"Feature","properties":{"osmId":1313409181,"cycleway":"lane","highway":"primary","lanes":"2","lit":"yes","maxspeed":"50","name":"Taramani Road","name:ta":"\u0ba4\u0bb0\u0bae\u0ba3\u0bbf \u0b9a\u0bbe\u0bb2\u0bc8","official_name":"Marmalong Bridge - Irumbuliyur - Vandalur - Mudichur - Oragadam - Walajabad Road","oneway":"yes","ref":"SH48","surface":"asphalt","interior":false},"geometry":{"type":"LineString","coordinates":[[80.2194122,12.9719844],[80.2193682,12.9718808],[80.2193515,12.9718275],[80.2193367,12.9717903],[80.2192707,12.9716252],[80.219131,12.9712759]]}},{"type":"Feature","properties":{"osmId":1313411088,"highway":"primary","maxspeed":"40","surface":"asphalt","interior":false},"geometry":{"type":"LineString","coordinates":[[80.2175892,12.9680691],[80.2176206,12.9681574],[80.2178182,12.9685835],[80.2183111,12.9697842],[80.2183783,12.969948],[80.2185501,12.9703664],[80.2186773,12.9706567],[80.2187689,12.9707573]]}},{"type":"Feature","properties":{"osmId":1318145472,"highway":"tertiary","lanes":"2","name":"RajaLaxmi Nagar 3rd Main Road","interior":true},"geometry":{"type":"LineString","coordinates":[[80.2199068,12.9844386],[80.2203291,12.9844422],[80.220623,12.984393]]}},{"type":"Feature","properties":{"osmId":1323165648,"highway":"residential","interior":true},"geometry":{"type":"LineString","coordinates":[[80.2210859,12.981247],[80.2206863,12.9813188]]}},{"type":"Feature","properties":{"osmId":1331925836,"highway":"tertiary","lanes":"2","name":"RajaLaxmi Nagar 3rd Main Road","interior":true},"geometry":{"type":"LineString","coordinates":[[80.2190934,12.9843659],[80.2191853,12.9843761],[80.2191936,12.984377],[80.2192206,12.9843793],[80.2199068,12.9844386]]}},{"type":"Feature","properties":{"osmId":1349490743,"highway":"primary","maxspeed":"40","surface":"asphalt","interior":false},"geometry":{"type":"LineString","coordinates":[[80.2175688,12.9680097],[80.2175892,12.9680691]]}},{"type":"Feature","properties":{"osmId":1371657978,"highway":"residential","interior":true},"geometry":{"type":"LineString","coordinates":[[80.2184169,12.9879978],[80.2188371,12.9879175]]}},{"type":"Feature","properties":{"osmId":1374370870,"highway":"primary_link","interior":false},"geometry":{"type":"LineString","coordinates":[[80.2165066,12.9685244],[80.2165419,12.9685832]]}},{"type":"Feature","properties":{"osmId":1377960408,"highway":"primary","maxspeed":"40","oneway":"yes","surface":"asphalt","interior":false},"geometry":{"type":"LineString","coordinates":[[80.2188898,12.9705875],[80.2189016,12.9704483],[80.2188139,12.970198],[80.2186821,12.969783]]}}]}